S-NET D                 
1 43186U 18014G   26133.16069156  .00002928  00000+0  15440-3 0  9992
2 43186  97.5393  38.1749 0009577 131.5141 228.6915 15.16330148453452
S-NET B                 
1 43187U 18014H   26133.17146106  .00002749  00000+0  14529-3 0  9993
2 43187  97.5397  38.1710 0010294 128.0162 232.2001 15.16300557453455
S-NET A                 
1 43188U 18014J   26133.15974458  .00002958  00000+0  15586-3 0  9997
2 43188  97.5407  38.3615 0010193 128.6051 231.6097 15.16337043453453
S-NET C                 
1 43189U 18014K   26133.17514838  .00002712  00000+0  14337-3 0  9993
2 43189  97.5425  38.4462 0011680 123.0548 237.1808 15.16291654452005
PAZ                     
1 43215U 18020A   26133.19681549  .00001171  00000+0  58931-4 0  9993
2 43215  97.4458 141.0794 0001737  87.0198 273.1235 15.19150232455692
GOES 17                 
1 43226U 18022A   26133.16397654 -.00000169  00000+0  00000+0 0  9991
2 43226   0.8480  86.1833 0000595 324.3775 149.9193  1.00271634 30078
LKW-4                   
1 43236U 18025A   26132.94635135  .00027999  00000+0  35343-3 0  9990
2 43236  97.6328 301.1439 0003220  86.6992 273.4632 15.59541968454534
ZHUHAI-1 OVS-02         
1 43440U 18040B   26133.18716230  .00004835  00000+0  19903-3 0  9995
2 43440  97.0413 152.5018 0004773  49.0784 311.0867 15.24544974447383
ZHUHAI-1 OHS-02         
1 43441U 18040C   26133.19137294  .00005144  00000+0  20637-3 0  9994
2 43441  97.0401 159.4106 0009238   8.6583 351.4814 15.25357460108943
GAOFEN-6                
1 43484U 18048A   26133.17252385 -.00000054  00000+0 -66790-6 0  9996
2 43484  97.7777 197.1357 0010629 291.6640  68.3438 14.76587936428224
LUOJIA-1 01             
1 43485U 18048B   26133.18797962  .00001398  00000+0  16151-3 0  9996
2 43485  97.8101 211.9402 0007725 230.4528 129.6006 14.87150762429017
PAKTES 1A               
1 43529U 18056A   26133.22674082  .00001221  00000+0  10599-3 0  9991
2 43529  98.1217 288.2363 0021475 224.7247 135.2243 14.98901406426680
PRSS-1                  
1 43530U 18056B   26133.14720257  .00000455  00000+0  63944-4 0  9991
2 43530  97.7832 201.9854 0001759  95.2176 264.9238 14.81931185423244
HAIYANG-1C              
1 43609U 18068A   26133.15237883 -.00000060  00000+0 -58211-5 0  9996
2 43609  98.5197 205.9643 0010562 192.2378 167.8552 14.34167479402060
SSTL S1-4               
1 43618U 18071A   26132.64267171  .00000140  00000+0  17212-4 0  9998
2 43618  97.5075   5.7265 0001140  61.8279 298.3058 14.96198353417625
HAIYANG-2B              
1 43655U 18081A   26133.19933671  .00000235  00000+0  27208-3 0  9996
2 43655  99.3303 142.4828 0001706  52.0959 308.0347 13.79306883380100
CFOSAT                  
1 43662U 18083A   26133.18655829  .00002103  00000+0  11137-3 0  9991
2 43662  97.3616 138.7473 0001879  61.5012 298.6410 15.16478349417132
TEN-KOH                 
1 43677U 18084G   26132.50263007  .00000685  00000+0  56191-4 0  9999
2 43677  98.0767 323.3683 0008170 233.1390 126.9085 15.02776129410805
DIWATA-2B               
1 43678U 18084H   26133.15667008  .00001897  00000+0  15649-3 0  9999
2 43678  98.1104 327.8639 0011981 292.3028  67.6923 15.00274438410964
STARS-AO                
1 43679U 18084J   26132.84666795  .00003729  00000+0  19450-3 0  9997
2 43679  98.0547 344.6448 0000770 315.1016  45.0153 15.16649662412111
AUTCUBE 2               
1 43681U 18084K   26132.51175050  .00002798  00000+0  17725-3 0  9991
2 43681  98.0744 336.7966 0009536 156.1813 203.9858 15.09838183411540
METOP-C                 
1 43689U 18087A   26133.15577111  .00000052  00000+0  43797-4 0  9997
2 43689  98.6662 193.3956 0000264 114.2140 245.9065 14.21502140389854
ES'HAIL 2               
1 43700U 18090A   26133.18327963  .00000158  00000+0  00000+0 0  9998
2 43700   0.0141 270.3589 0001577 176.2034 236.2112  1.00274401 27329
MOHAMMED VI-B           
1 43717U 18095A   26133.15444359  .00000087  00000+0  19512-4 0  9991
2 43717  97.9563 205.9595 0001283  79.6240 280.5115 14.77068935403010
HYSIS                   
1 43719U 18096A   26133.15830154  .00000814  00000+0  11823-3 0  9990
2 43719  97.9854 200.1774 0000832 104.4115 255.7188 14.78620128402245
COSMOS 2530 (RODNIK-S *)
1 43751U 18097A   26133.19935292  .00000141  00000+0  94652-3 0  9994
2 43751  82.5140 243.9920 0020764 112.2998 248.0286 12.42881111337947
COSMOS 2531 (RODNIK-S *)
1 43752U 18097B   26133.22249559  .00000110  00000+0  71893-3 0  9991
2 43752  82.5185 245.0244 0017833 130.0056 230.2592 12.42912589337964
COSMOS 2532 (RODNIK-S *)
1 43753U 18097C   26133.25068130  .00000094  00000+0  60628-3 0  9994
2 43753  82.5131 243.8087 0019195 132.1234 228.1481 12.42909176337939
MINXSS-2                
1 43758U 18099A   26133.00285454  .00023586  00000+0  50831-3 0  9990
2 43758  97.4550 208.3220 0007501  43.8681 316.3162 15.44563270408695
SIRION PATHFINDER-2     
1 43759U 18099B   26133.09552039  .00003308  00000+0  18446-3 0  9992
2 43759  97.4282 182.9909 0010238  67.3448 292.8865 15.14216957407312
