OBJECT_NAME,OBJECT_ID,EPOCH,MEAN_MOTION,ECCENTRICITY,INCLINATION,RA_OF_ASC_NODE,ARG_OF_PERICENTER,MEAN_ANOMALY,EPHEMERIS_TYPE,CLASSIFICATION_TYPE,NORAD_CAT_ID,ELEMENT_SET_NO,REV_AT_EPOCH,BSTAR,MEAN_MOTION_DOT,MEAN_MOTION_DDOT
S-NET D,2018-014G,2026-05-13T03:51:23.750784,15.16330148,.0009577,97.5393,38.1749,131.5141,228.6915,0,U,43186,999,45345,.1544E-3,.2928E-4,0
S-NET B,2018-014H,2026-05-13T04:06:54.235584,15.16300557,.0010294,97.5397,38.1710,128.0162,232.2001,0,U,43187,999,45345,.14529E-3,.2749E-4,0
S-NET A,2018-014J,2026-05-13T03:50:01.931712,15.16337043,.0010193,97.5407,38.3615,128.6051,231.6097,0,U,43188,999,45345,.15586E-3,.2958E-4,0
S-NET C,2018-014K,2026-05-13T04:12:12.820032,15.16291654,.001168,97.5425,38.4462,123.0548,237.1808,0,U,43189,999,45200,.14337E-3,.2712E-4,0
PAZ,2018-020A,2026-05-13T04:43:24.858336,15.19150232,.0001737,97.4458,141.0794,87.0198,273.1235,0,U,43215,999,45569,.58931E-4,.1171E-4,0
GOES 17,2018-022A,2026-05-13T03:56:07.573056,1.00271634,.0000595,0.8480,86.1833,324.3775,149.9193,0,U,43226,999,3007,0,-.169E-5,0
LKW-4,2018-025A,2026-05-12T22:42:44.756640,15.59541968,.000322,97.6328,301.1439,86.6992,273.4632,0,U,43236,999,45453,.35343E-3,.27999E-3,0
ZHUHAI-1 OVS-02,2018-040B,2026-05-13T04:29:30.822720,15.24544974,.0004773,97.0413,152.5018,49.0784,311.0867,0,U,43440,999,44738,.19903E-3,.4835E-4,0
ZHUHAI-1 OHS-02,2018-040C,2026-05-13T04:35:34.622016,15.25357460,.0009238,97.0401,159.4106,8.6583,351.4814,0,U,43441,999,10894,.20637E-3,.5144E-4,0
GAOFEN-6,2018-048A,2026-05-13T04:08:26.060640,14.76587936,.0010629,97.7777,197.1357,291.6640,68.3438,0,U,43484,999,42822,-.6679E-6,-.54E-6,0
LUOJIA-1 01,2018-048B,2026-05-13T04:30:41.439168,14.87150762,.0007725,97.8101,211.9402,230.4528,129.6006,0,U,43485,999,42901,.16151E-3,.1398E-4,0
PAKTES 1A,2018-056A,2026-05-13T05:26:30.406848,14.98901406,.0021475,98.1217,288.2363,224.7247,135.2243,0,U,43529,999,42668,.10599E-3,.1221E-4,0
PRSS-1,2018-056B,2026-05-13T03:31:58.302048,14.81931185,.0001759,97.7832,201.9854,95.2176,264.9238,0,U,43530,999,42324,.63944E-4,.455E-5,0
HAIYANG-1C,2018-068A,2026-05-13T03:39:25.530912,14.34167479,.0010562,98.5197,205.9643,192.2378,167.8552,0,U,43609,999,40206,-.58211E-5,-.6E-6,0
SSTL S1-4,2018-071A,2026-05-12T15:25:26.835744,14.96198353,.000114,97.5075,5.7265,61.8279,298.3058,0,U,43618,999,41762,.17212E-4,.14E-5,0
HAIYANG-2B,2018-081A,2026-05-13T04:47:02.691744,13.79306883,.0001706,99.3303,142.4828,52.0959,308.0347,0,U,43655,999,38010,.27208E-3,.235E-5,0
CFOSAT,2018-083A,2026-05-13T04:28:38.636256,15.16478349,.0001879,97.3616,138.7473,61.5012,298.6410,0,U,43662,999,41713,.11137E-3,.2103E-4,0
TEN-KOH,2018-084G,2026-05-12T12:03:47.238048,15.02776129,.000817,98.0767,323.3683,233.1390,126.9085,0,U,43677,999,41080,.56191E-4,.685E-5,0
DIWATA-2B,2018-084H,2026-05-13T03:45:36.294912,15.00274438,.0011981,98.1104,327.8639,292.3028,67.6923,0,U,43678,999,41096,.15649E-3,.1897E-4,0
STARS-AO,2018-084J,2026-05-12T20:19:12.110880,15.16649662,.00007704,98.0547,344.6448,315.1016,45.0153,0,U,43679,999,41211,.19449512E-3,.3729E-4,0
AUTCUBE 2,2018-084K,2026-05-12T12:16:55.243200,15.09838183,.0009536,98.0744,336.7966,156.1813,203.9858,0,U,43681,999,41154,.17725E-3,.2798E-4,0
METOP-C,2018-087A,2026-05-13T03:44:18.623904,14.21502140,.0000264,98.6662,193.3956,114.2140,245.9065,0,U,43689,999,38985,.43797E-4,.52E-6,0
ES'HAIL 2,2018-090A,2026-05-13T04:23:55.360032,1.00274401,.0001577,0.0141,270.3589,176.2034,236.2112,0,U,43700,999,2732,0,.158E-5,0
MOHAMMED VI-B,2018-095A,2026-05-13T03:42:23.926176,14.77068935,.0001283,97.9563,205.9595,79.6240,280.5115,0,U,43717,999,40301,.19512E-4,.87E-6,0
HYSIS,2018-096A,2026-05-13T03:47:57.253056,14.78620128,.0000832,97.9854,200.1774,104.4115,255.7188,0,U,43719,999,40224,.11823E-3,.814E-5,0
COSMOS 2530 (RODNIK-S 16),2018-097A,2026-05-13T04:47:04.092288,12.42881111,.0020764,82.5140,243.9920,112.2998,248.0286,0,U,43751,999,33794,.94652E-3,.141E-5,0
COSMOS 2531 (RODNIK-S 17),2018-097B,2026-05-13T05:20:23.618976,12.42912589,.0017833,82.5185,245.0244,130.0056,230.2592,0,U,43752,999,33796,.71893E-3,.11E-5,0
COSMOS 2532 (RODNIK-S 18),2018-097C,2026-05-13T06:00:58.864320,12.42909176,.0019195,82.5131,243.8087,132.1234,228.1481,0,U,43753,999,33793,.60628E-3,.94E-6,0
MINXSS-2,2018-099A,2026-05-13T00:04:06.632256,15.44563270,.0007501,97.4550,208.3220,43.8681,316.3162,0,U,43758,999,40869,.50831E-3,.23586E-3,0
SIRION PATHFINDER-2,2018-099B,2026-05-13T02:17:32.961696,15.14216957,.0010238,97.4282,182.9909,67.3448,292.8865,0,U,43759,999,40731,.18446E-3,.3308E-4,0
